CORIOLIS                
1 27640U 03001A   24243.94272674  .00000481  00000+0  24850-3 0  9993
2 27640  98.7155 249.9736 0013100 302.6318  57.3594 14.19542854121240
CUTE-1 (CO-55)          
1 27844U 03031E   24243.95706342  .00001187  00000+0  54205-3 0  9998
2 27844  98.6795 249.9558 0008485 290.7576  69.2693 14.23417085 98427
CUBESAT XI-IV (CO-57)   
1 27848U 03031J   24243.00690852  .00000946  00000+0  44092-3 0  9991
2 27848  98.6825 249.2208 0008608 312.1194  47.9251 14.22834227 98032
MOZHAYETS 4 (RS-22)     
1 27939U 03042A   24243.95324969  .00004925  00000+0  82065-3 0  9994
2 27939  98.2996  41.3935 0011897 179.4951 296.3840 14.70430678119139
IRS-P6 (RESOURCESAT-1)  
1 28051U 03046A   24243.96890225  .00001137  00000+0  39914-3 0  9995
2 28051  98.2876 298.3777 0065573 144.8209 339.2276 14.35583459 86491
SAUDISAT 2              
1 28371U 04025F   24243.90908582  .00001297  00000+0  30665-3 0  9999
2 28371  98.4909 218.2497 0025834 147.1794 213.1014 14.55653575 70375
COSMOS 2407             
1 28380U 04028A   24243.96681896  .00000139  00000+0  12709-3 0  9997
2 28380  82.9620 200.0287 0037766 285.7616 139.3201 13.76229524  9754
COSMOS 2414             
1 28521U 05002A   24243.91700770  .00000204  00000+0  15747-3 0  9993
2 28521  82.9531 179.2245 0041290  39.4968 320.9191 13.87797458992951
INMARSAT 4-F1           
1 28628U 05009A   24243.31596802  .00000018  00000+0  00000+0 0  9996
2 28628   4.3568  41.3463 0002088 157.6895  71.7931  1.00273210 71095
HAMSAT (VO-52)          
1 28650U 05017B   24243.90785800  .00013290  00000+0  10940-2 0  9996
2 28650  97.9898 232.1146 0021242  76.7128 283.6461 14.99052801 48184
NOAA 18                 
1 28654U 05018A   24243.89956636  .00000560  00000+0  32216-3 0  9993
2 28654  98.8706 320.2344 0013864 207.6369 152.4068 14.13304159993725
SJ-7                    
1 28737U 05024A   24243.92905066  .00015004  00000+0  10027-2 0  9991
2 28737  97.7697 249.9070 0023478 123.9201 236.4263 15.06853323 48810
CUBESAT XI-V            
1 28895U 05043F   24243.60485431  .00005603  00000+0  97666-3 0  9990
2 28895  98.2107  19.6035 0016268 121.3145 238.9655 14.68328858  5371
CLOUDSAT                
1 29107U 06016A   24243.95393295  .00004823  00000+0  59977-3 0  9998
2 29107  98.4139 233.4234 0003941 292.9364  67.1432 14.83043234977242
CALIPSO                 
1 29108U 06016B   24243.95899837  .00004629  00000+0  84862-3 0  9997
2 29108  98.4245 227.7255 0001780 102.2982 257.8420 14.66266138976906
HINODE (SOLAR-B)        
1 29479U 06041A   24243.91631925  .00002611  00000+0  47598-3 0  9998
2 29479  98.0887 258.2124 0017430 200.0243 160.0279 14.66769338958733
METOP-A                 
1 29499U 06044A   24243.97258123  .00004410  00000+0  55185-3 0  9994
2 29499  98.3523 321.0752 0186239 352.8662 180.5947 14.71309114928921
SHIJIAN-6 02B (SJ-6 02B)
1 29506U 06046B   24243.94897278  .00004769  00000+0  41063-3 0  9999
2 29506  97.7365 268.1556 0003563  78.9465 281.2157 14.97819905972513
DMSP 5D-3 F17 (USA 191) 
1 29522U 06050A   24243.95382801  .00000597  00000+0  33359-3 0  9998
2 29522  98.7458 252.9926 0011096 122.9581 237.2661 14.14546115919764
LAPAN-TUBSAT            
1 29709U 07001A   24243.91308782  .00002131  00000+0  26070-3 0  9992
2 29709  98.0758 219.9936 0013218 151.8903 208.3027 14.84263153953889
HAIYANG-1B              
1 31113U 07010A   24243.93124681  .00000447  00000+0  18672-3 0  9997
2 31113  98.2993 242.5610 0013370 350.2054   9.8867 14.30668913906929
BEIDOU-2 M1             
1 31115U 07011A   24243.63911586  .00000023  00000+0  00000+0 0  9997
2 31115  51.2111 241.0650 0002122 317.8494  42.1406  1.77349210 64523
CAPE-1                  
1 31130U 07012P   24243.85563215  .00006256  00000+0  12189-2 0  9999
2 31130  98.3550 194.8310 0087993 315.3633  44.0505 14.60930350922503
CBERS 2B                
1 32062U 07042A   24243.65671473  .00000902  00000+0  29380-3 0  9995
2 32062  98.3067 192.1272 0032024 147.4926  25.7134 14.40680222890262
COSMO-SKYMED 2          
1 32376U 07059A   24243.90381758  .00001860  00000+0  24007-3 0  9998
2 32376  97.8891  65.9563 0001332  88.1516 271.9849 14.82168145904932
CARTOSAT-2A             
1 32783U 08021A   24243.94795451  .00002903  00000+0  40179-3 0  9990
2 32783  97.8600 300.6868 0012993  80.6787 279.5893 14.78728389881968
CUTE-1.7+APD II (CO-65) 
1 32785U 08021C   24243.86386636  .00013900  00000+0  11767-2 0  9993
2 32785  97.7621 208.6513 0013814  80.3422 279.9360 14.98054584886725
COMPASS-1               
1 32787U 08021E   24243.73463359  .00036838  00000+0  19168-2 0  9997
2 32787  97.6271 220.2254 0005482 320.1746  39.9084 15.15925312889013
AAUSAT-II               
1 32788U 08021F   24243.91132428  .00056703  00000+0  24278-2 0  9999
2 32788  97.5979 224.6260 0001195 208.6510 151.4660 15.22581145889671
SEEDS II (CO-66)        
1 32791U 08021J   24243.14325509  .00019668  00000+0  13479-2 0  9992
2 32791  97.6955 214.0227 0007420  72.1738 288.0298 15.06060908887728
YUBILEINY (RS-30)       
1 32953U 08025A   24243.91848468  .00000061  00000+0  36906-3 0  9993
2 32953  82.5021  42.9895 0018685 303.0324  56.8960 12.43146792738272
FENGYUN 3A              
1 32958U 08026A   24243.55708131  .00000460  00000+0  24025-3 0  9993
2 32958  98.6082 188.5442 0007949 211.7624 148.3074 14.19166788842503
HUANJING 1A (HJ-1A)     
1 33320U 08041A   24243.93043609  .00004745  00000+0  62435-3 0  9995
2 33320  97.6336 247.2808 0021768 124.6707 235.6561 14.80457093861317
HUANJING 1B (HJ-1B)     
1 33321U 08041B   24243.92210175  .00003407  00000+0  44476-3 0  9998
2 33321  97.6280 251.7906 0038551 169.2731 190.9314 14.80617893861343
SHIJIAN-6 03A (SJ-6 03A)
1 33408U 08053A   24243.93463723  .00013705  00000+0  96629-3 0  9996
2 33408  97.8822 246.4842 0017288  91.1218 269.1988 15.04988778863944
SHIJIAN-6 03B (SJ-6 03B)
1 33409U 08053B   24243.94681099  .00005612  00000+0  45935-3 0  9998
2 33409  97.8869 242.7556 0018188  75.6386 284.6854 14.99600311864368
CHUANGXIN 1-02 (CX-1-02)
1 33434U 08056B   24243.90857858  .00000355  00000+0  15505-3 0  9992
2 33434  98.6724 263.6889 0013139 262.7716  97.1972 14.29858326824967
PRISM (HITOMI)          
1 33493U 09002B   24243.88767336  .00057548  00000+0  23118-2 0  9991
2 33493  98.1974 298.1900 0009500 352.7714   7.3382 15.24694370850405
STARS (KUKAI)           
1 33498U 09002G   24243.51117176  .00009376  00000+0  10624-2 0  9991
2 33498  98.1133 159.2410 0010616 154.6555 205.5183 14.86572539840715
KKS-1 (KISEKI)          
1 33499U 09002H   24243.97452479  .00004765  00000+0  64730-3 0  9995
2 33499  98.1299 146.4543 0006886 245.2593 114.7902 14.79299649839175
NOAA 19                 
1 33591U 09005A   24243.86168433  .00000539  00000+0  31282-3 0  9994
2 33591  99.0410 300.4304 0014805  83.1049 277.1806 14.13096718801913
YAOGAN-6                
1 34839U 09021A   24243.86833413  .00043244  00000+0  70250-3 0  9993
2 34839  97.1776 211.0223 0012143 258.3912 101.5979 15.52512411855005
UK-DMC 2                
1 35683U 09041C   24243.90229039  .00003339  00000+0  51914-3 0  9998
2 35683  97.7912  28.5266 0001155 101.1016 259.0322 14.73662474809962
METEOR-M 1              
1 35865U 09049A   24243.89977751  .00000493  00000+0  23926-3 0  9997
2 35865  98.6402 203.7702 0003284  60.9366 299.2141 14.22773333776054
OCEANSAT-2              
1 35931U 09051A   24243.92761881 -.00000001  00000+0  25470-4 0  9996
2 35931  98.2601 285.4567 0015569 287.5074  72.4391 13.99498098787676
SWISSCUBE               
1 35932U 09051B   24243.97133084  .00003946  00000+0  84107-3 0  9991
2 35932  98.4597 128.7564 0008698  87.3896 272.8298 14.59492799793467
BEESAT-1                
1 35933U 09051C   24243.23675567  .00002951  00000+0  63624-3 0  9994
2 35933  98.4526 128.8179 0006994  99.3861 260.8129 14.59164826793428
ITUPSAT1                
1 35935U 09051E   24243.92262927  .00003056  00000+0  67371-3 0  9994
2 35935  98.4621 129.2599 0009169 104.2973 255.9244 14.58095654793158
DMSP 5D-3 F18 (USA 210) 
1 35951U 09057A   24243.90703395  .00000845  00000+0  46546-3 0  9999
2 35951  98.8213 218.2799 0010365 320.0365  40.0045 14.14238059766940
PROBA-2                 
1 36037U 09059B   24243.94508272  .00000962  00000+0  23827-3 0  9995
2 36037  98.2339  66.1286 0014064 139.9749 220.2487 14.54055467786277
YAOGAN-7                
1 36110U 09069A   24243.89970387  .00001870  00000+0  27508-3 0  9991
2 36110  98.0937 119.9350 0025157 351.9417   8.1385 14.76458456792875
XIWANG-1 (HOPE-1)       
1 36122U 09072B   24243.59242049  .00000002  00000+0  12102-3 0  9992
2 36122 100.3009 199.9324 0006912 296.2655  63.7748 13.16406468706747
RADUGA-1M 2             
1 36358U 10002A   24243.83775812 -.00000201  00000+0  00000+0 0  9996
2 36358   1.9099  87.4845 0002031 104.3360 174.2533  1.00274471 43518
COSMOS 2463             
1 36519U 10017A   24243.91998799  .00000131  00000+0  12755-3 0  9996
2 36519  82.9639  11.1426 0036979 146.6515 335.0811 13.71575473718101
CARTOSAT-2B             
1 36795U 10035A   24243.91656095  .00002871  00000+0  39810-3 0  9996
2 36795  97.8540 300.2404 0012545 152.4426 207.7452 14.78662026763015
AISSAT 1                
1 36797U 10035C   24243.88152530  .00006359  00000+0  63463-3 0  9995
2 36797  98.1758 108.1900 0011337  65.1447 295.0948 14.91851735766306
TISAT 1                 
1 36799U 10035E   24243.95370041  .00020841  00000+0  14852-2 0  9993
2 36799  98.0790 136.6926 0004014  16.5556 343.5799 15.04608162768294
YAOGAN-10               
1 36834U 10038A   24243.95346274  .00002549  00000+0  31940-3 0  9990
2 36834  97.9478 260.6727 0001773  92.2935 328.0961 14.83109408760019
SHIJIAN-6 04B (SJ-6 04B)
1 37180U 10051B   24243.91944210  .00004279  00000+0  38089-3 0  9993
2 37180  97.8426 233.4728 0010415 351.5422   8.5622 14.96562660757567
